address_id	address_organisation	address_organisationsbereich	bezeichnung	address_strasse	address_hausnummer	address_postleitzahl	address_ort	latitude	longitude	service_id	service_email	service_oeffnungszeiten	service_barrierefreiheit_anmerkung	service_bezeichnung	service_anzeigename	service_beschreibung	service_kurzbeschreibung	gebuehren	betreiber	duschen	wickelraeume
﻿101010	Landeshauptstadt München	Referat für Gesundheit und Umwelt	Neuer Südfriedhof	Hochaeckerstr.	90	81737	München	48.1005949	11.6224059	10176177	neuer-suedfriedhof@muenchen.de	während der Öffnungszeiten des Friedhofs		"Öffentliche Toilette ""Neuer Südfriedhof"""	"Öffentliche Toilette ""Neuer Südfriedhof"""			gebührenfrei	Landeshauptstadt München	FALSE	FALSE
10198309	Landeshauptstadt München	MTG	"Öffentliche Toilette ""Lorettoplatz"""	Lorettoplatz				48.1034748	11.4890378	10198310	info@muenchner-toiletten.de	Täglich, 06.00-24.00 Uhr		"Öffentliche Toilette ""Lorettoplatz"""	"Öffentliche Toilette ""Lorettoplatz"""			gebührenfrei	Münchner Toiletten GmbH	FALSE	FALSE
10198354	Landeshauptstadt München	Kommunalreferat	"Öffentliche Toilette ""Bavariaring 5"""	Bavariaring	5			48.1363899	11.5498500	10198355	kroell@hansimglueck-franchise.de	nur während Oktoberfest geöffnet		"Öffentliche Toilette ""Bavariaring 5"""	"Öffentliche Toilette ""Bavariaring 5"""		Diese Toilette ist nur während des Oktoberfests geöffnet.	gebührenpflichtig	Privater Betreiber	FALSE	FALSE
10198358	Landeshauptstadt München	Baureferat	Öffentliche Toilettenkabine Isarauen	westl. Marienklausenbrücke				48.0922698	11.5478861	10198359		nicht bei Hochwasser		"Öffentliche Toilettenkabine Isarauen ""westl. Marienklausenbrücke"""	"Öffentliche Toilettenkabine Isarauen ""westl. Marienklausenbrücke"""			gebührenfrei	Landeshauptstadt München	FALSE	FALSE
10198360	Landeshauptstadt München	Baureferat	Öffentliche Toilettenkabine Isarauen	Floßlände				48.0956020	11.5443670	10198361		nur während Floßsaison		"Öffentliche Toilettenkabine Isarauen ""Floßlände"""	"Öffentliche Toilettenkabine Isarauen ""Floßlände"""		nur während Floßsaison	gebührenfrei	Landeshauptstadt München	FALSE	FALSE
10198362	Landeshauptstadt München	Baureferat	Öffentliche Toilettenkabine Isarauen	Floßlände				48.0952580	11.5461641	10198363		nicht bei Hochwasser		"Öffentliche Toilettenkabine Isarauen ""Floßlände 2"""	"Öffentliche Toilettenkabine Isarauen ""Floßlände 2"""		nicht bei Hochwasser	gebührenfrei	Landeshauptstadt München	FALSE	FALSE
10198364	Landeshauptstadt München	Baureferat	Öffentliche Toilettenkabine Isarauen	südlich Flauchersteg				48.1024913	11.5523010	10198365		nicht bei Hochwasser		"Öffentliche Toilettenkabine Isarauen ""Lagehinweis südlich Flauchersteg"""	"Öffentliche Toilettenkabine Isarauen ""Lagehinweis südlich Flauchersteg"""		nicht bei Hochwasser	gebührenfrei	Landeshauptstadt München	FALSE	FALSE
10198366	Landeshauptstadt München	Baureferat	Öffentliche Toilettenkabine Isarauen	zwischen Brudermühlbrücke und Flaucher				48.1095696	11.5588885	10198367		nicht bei Hochwasser		"Öffentliche Toilettenkabine Isarauen ""zwischen Brudermühlbrücke und Flaucher"""	"Öffentliche Toilettenkabine Isarauen ""zwischen Brudermühlbrücke und Flaucher"""		nicht bei Hochwasser	gebührenfrei	Landeshauptstadt München	FALSE	FALSE
10198368	Landeshauptstadt München	Baureferat	Öffentliche Toilettenkabine Isarauen	südlich Brudermühlbrücke				48.1116398	11.5591728	10198369		nicht bei Hochwasser		"Öffentliche Toilettenkabine Isarauen ""südlich Brudermühlbrücke"""	"Öffentliche Toilettenkabine Isarauen ""südlich Brudermühlbrücke"""		nicht bei Hochwasser	gebührenfrei	Landeshauptstadt München	FALSE	FALSE
10198370	Landeshauptstadt München	Baureferat	Öffentliche Toilettenkabine Isarauen	südöstlich Braunauer Eisenbahnbrücke				48.1177642	11.5624397	10198371		nicht bei Hochwasser		"Öffentliche Toilettenkabine Isarauen ""südöstlich Braunauer Eisenbahnbrücke"""	"Öffentliche Toilettenkabine Isarauen ""südöstlich Braunauer Eisenbahnbrücke"""		nicht bei Hochwasser	gebührenfrei	Landeshauptstadt München	FALSE	FALSE
10198372	Landeshauptstadt München	Baureferat	Öffentliche Toilettenkabine Isarauen	südlich Wittelsbacherbrücke, bei Bolzplatz				48.1216390	11.5680187	10198373		nicht bei Hochwasser		"Öffentliche Toilettenkabine Isarauen ""südlich Wittelsbacherbrücke, bei Bolzplatz"""	"Öffentliche Toilettenkabine Isarauen ""südlich Wittelsbacherbrücke, bei Bolzplatz"""		nicht bei Hochwasser	gebührenfrei	Landeshauptstadt München	FALSE	FALSE
10198374	Landeshauptstadt München	Baureferat	Öffentliche Toilettenkabine Isarauen	westlich Eduard-Schmid-Str.				48.1236218	11.5716082	10198375		nicht bei Hochwasser		"Öffentliche Toilettenkabine Isarauen ""westlich Eduard-Schmid-Str."""	"Öffentliche Toilettenkabine Isarauen ""westlich Eduard-Schmid-Str."""		nicht bei Hochwasser	gebührenfrei	Landeshauptstadt München	FALSE	FALSE
10198376	Landeshauptstadt München	Baureferat	Öffentliche Toilettenkabine Isarauen	südlich Reichenbachbrücke				48.1266296	11.5774232	10198377		nicht bei Hochwasser		"Öffentliche Toilettenkabine Isarauen ""südlich Reichenbachbrücke"""	"Öffentliche Toilettenkabine Isarauen ""südlich Reichenbachbrücke"""		nicht bei Hochwasser	gebührenfrei	Landeshauptstadt München	FALSE	FALSE
10198378	Landeshauptstadt München	Baureferat	Öffentliche Toilettenkabine Isarauen	südwestlich Brudermühlbrücke				48.1236146	11.5715974	10198379		nicht bei Hochwasser		"Öffentliche Toilettenkabine Isarauen ""südwestlich Brudermühlbrücke"""	"Öffentliche Toilettenkabine Isarauen ""südwestlich Brudermühlbrücke"""		nicht bei Hochwasser	gebührenfrei	Landeshauptstadt München	FALSE	FALSE
10198380	Landeshauptstadt München	Baureferat	Öffentliche Toilettenkabine Isarauen	südwestlich Brudermühlbrücke 2				48.1116387	11.5591198	10198381		nicht bei Hochwasser		"Öffentliche Toilettenkabine Isarauen ""südwestlich Brudermühlbrücke 2"""	"Öffentliche Toilettenkabine Isarauen ""südwestlich Brudermühlbrücke 2"""		nicht bei Hochwasser	gebührenfrei	Landeshauptstadt München	FALSE	FALSE
10198382	Landeshauptstadt München	Baureferat	Öffentliche Toilettenkabine Isarauen	südwestlich Brudermühlbrücke				48.1095685	11.5588838	10198383		nicht bei Hochwasser		"Öffentliche Toilettenkabine Isarauen ""südwestlich Brudermühlbrücke"""	"Öffentliche Toilettenkabine Isarauen ""südwestlich Brudermühlbrücke"""		nicht bei Hochwasser	gebührenfrei	Landeshauptstadt München	FALSE	FALSE
10198384	Landeshauptstadt München	Baureferat	Öffentliche Toilettenkabine Isarauen	Praterinsel				48.1352285	11.5888463	10198385		nicht bei Hochwasser		"Öffentliche Toilettenkabine Isarauen ""Praterinsel"""	"Öffentliche Toilettenkabine Isarauen ""Praterinsel"""		nicht bei Hochwasser	gebührenfrei	Landeshauptstadt München	FALSE	FALSE
10198386	Landeshauptstadt München	Baureferat	Öffentliche Toilettenkabine Isarauen	Karl-Müller-Weg, nördlich Volksbad				48.1333489	11.5887980	10198387		nicht bei Hochwasser		"Öffentliche Toilettenkabine Isarauen ""Karl-Müller-Weg, nördlich Volksbad"""	"Öffentliche Toilettenkabine Isarauen ""Karl-Müller-Weg, nördlich Volksbad"""		nicht bei Hochwasser	gebührenfrei	Landeshauptstadt München	FALSE	FALSE
10198388	Landeshauptstadt München	Baureferat	Öffentliche Toilettenkabine Isarauen	nördlich Wasserwacht an der Marienklausenbrücke				48.0944531	11.5489940	10198389		nicht bei Hochwasser		"Öffentliche Toilettenkabine Isarauen ""nördlich Wasserwacht an der Marienklausenbrücke"""	"Öffentliche Toilettenkabine Isarauen ""nördlich Wasserwacht an der Marienklausenbrücke"""		nicht bei Hochwasser	gebührenfrei	Landeshauptstadt München	FALSE	FALSE
10198390	Landeshauptstadt München	Baureferat	Öffentliche Toilettenkabine Isarauen	nördlich des Flaucherstegs				48.1074503	11.5526311	10198391		nicht bei Hochwasser		"Öffentliche Toilettenkabine Isarauen ""nördlich des Flaucherstegs"""	"Öffentliche Toilettenkabine Isarauen ""nördlich des Flaucherstegs"""		nicht bei Hochwasser	gebührenfrei	Landeshauptstadt München	FALSE	FALSE
10198392	Landeshauptstadt München	Baureferat	Öffentliche Toilettenkabine Isarauen	Rosengarten an der Isar, Sachsenstraße				48.1177977	11.5658598	10198393		nicht bei Hochwasser		"Öffentliche Toilettenkabine Isarauen ""Rosengarten an der Isar, Sachsenstraße"""	"Öffentliche Toilettenkabine Isarauen ""Rosengarten an der Isar, Sachsenstraße"""		nicht bei Hochwasser	gebührenfrei	Landeshauptstadt München	FALSE	FALSE
103829	Landeshauptstadt München	Referat für Gesundheit und Umwelt	Friedhof Daglfing	Kohlbrennerstraße	19	81929	München	48.1522575	11.6573275	10176168		während der Öffnungszeiten des Friedhofs		"Öffentliche Toilette ""Friedhof Daglfing"""	"Öffentliche Toilette ""Friedhof Daglfing"""			gebührenfrei	Landeshauptstadt München	FALSE	FALSE
103831	Landeshauptstadt München	Referat für Gesundheit und Umwelt	Friedhof Haidhausen	Einsteinstraße	74	81675	München	48.1332798	11.6045192	10176169		während der Öffnungszeiten des Friedhofs		"Öffentliche Toilette ""Friedhof Haidhausen"""	"Öffentliche Toilette ""Friedhof Haidhausen"""			gebührenfrei	Landeshauptstadt München	FALSE	FALSE
103833	Landeshauptstadt München	Referat für Gesundheit und Umwelt	Friedhof Riem	Am Mitterfeld	68	81829	München	48.1321057	11.6800315	10176170		während der Öffnungszeiten des Friedhofs		"Öffentliche Toilette ""Friedhof Riem"""	"Öffentliche Toilette ""Friedhof Riem"""			gebührenfrei	Landeshauptstadt München	FALSE	FALSE
103835	Landeshauptstadt München	Referat für Gesundheit und Umwelt	Friedhof Feldmoching	Am Gottesackerweg	53	80995	München	48.2160130	11.5260110	10176175		während der Öffnungszeiten des Friedhofs		"Öffentliche Toilette ""Friedhof Feldmoching"""	"Öffentliche Toilette ""Friedhof Feldmoching"""			gebührenfrei	Landeshauptstadt München	FALSE	FALSE
103841	Landeshauptstadt München	Referat für Gesundheit und Umwelt	Friedhof Sendling	Albert-Roßhaupter-Straße	5	81369	München	48.1166359	11.5363610	10176171		während der Öffnungszeiten des Friedhofs		"Öffentliche Toilette ""Friedhof Sendling"""	"Öffentliche Toilette ""Friedhof Sendling"""			gebührenfrei	Landeshauptstadt München	FALSE	FALSE
103843	Landeshauptstadt München	Referat für Gesundheit und Umwelt	Friedhof Solln	Friedhofweg	1	81479	München	48.0786754	11.5174349	10176180		während der Öffnungszeiten des Friedhofs		"Öffentliche Toilette ""Friedhof Solln"""	"Öffentliche Toilette ""Friedhof Solln"""			gebührenfrei	Landeshauptstadt München	FALSE	FALSE
103845	Landeshauptstadt München	Referat für Gesundheit und Umwelt	Waldfriedhof Solln	Warnbergstraße	2	81479	München	48.0681516	11.5131724	10176181		während der Öffnungszeiten des Friedhofs		"Öffentliche Toilette ""Waldfriedhof Solln"""	"Öffentliche Toilette ""Waldfriedhof Solln"""			gebührenfrei	Landeshauptstadt München	FALSE	FALSE
103847	Landeshauptstadt München	Referat für Gesundheit und Umwelt	Friedhof Perlach	Putzbrunner Straße	51	81739	München	48.0983192	11.6409703	10198394		während der Öffnungszeiten des Friedhofs		"Öffentliche Toilette ""Friedhof Perlach"""	"Öffentliche Toilette ""Friedhof Perlach"""			"gebührenfrei
gebührenfrei"	Landeshauptstadt München	FALSE	FALSE
1049891	Landeshauptstadt München	Referat für Gesundheit und Umwelt	Friedhof Allach	Eversbuschstraße	197	80999	München	48.2003300	11.4570771	10176185		während der Öffnungszeiten des Friedhofs		"Öffentliche Toilette ""Friedhof Allach"""	"Öffentliche Toilette ""Friedhof Allach"""			gebührenfrei	Landeshauptstadt München	FALSE	FALSE
1049893	Landeshauptstadt München	Referat für Gesundheit und Umwelt	Friedhof Aubing	Freihamer Weg	73	81249	München	48.1545708	11.4094021	10176186		während der Öffnungszeiten des Friedhofs	mit Behinderten-WC	"Öffentliche Toilette ""Friedhof Aubing"""	"Öffentliche Toilette ""Friedhof Aubing"""	mit Behinderten-WC		gebührenfrei	Landeshauptstadt München	FALSE	FALSE
1049895	Landeshauptstadt München	Referat für Gesundheit und Umwelt	Friedhof Lochhausen	Schussenrieder Straße	36	81249	München	48.1840833	11.4064665	10176187		während der Öffnungszeiten des Friedhofs		"Öffentliche Toilette ""Friedhof Lochhausen"""	"Öffentliche Toilette ""Friedhof Lochhausen"""			gebührenfrei	Landeshauptstadt München	FALSE	FALSE
1049897	Landeshauptstadt München	Referat für Gesundheit und Umwelt	Friedhof Pasing	Lampertstraße	1	81241	München	48.1369567	11.4576911	10176183		während der Öffnungszeiten des Friedhofs	mit Behinderten-WC	"Öffentliche Toilette ""Friedhof Pasing"""	"Öffentliche Toilette ""Friedhof Pasing"""	mit Behinderten-WC		gebührenfrei	Landeshauptstadt München	FALSE	FALSE
1049899	Landeshauptstadt München	Referat für Gesundheit und Umwelt	Friedhof Untermenzing	Eversbuschstraße	9a	80999	München	48.1776690	11.4604223	10176184		während der Öffnungszeiten des Friedhofs		"Öffentliche Toilette ""Friedhof Untermenzing"""	"Öffentliche Toilette ""Friedhof Untermenzing"""			gebührenfrei	Landeshauptstadt München	FALSE	FALSE
1060490	Landeshauptstadt München	Referat für Gesundheit und Umwelt	Nordfriedhof	Ungererstr.	130	80805	München	48.1748661	11.6002139	10176173	sfm-gv-nord.rgu@muenchen.de	während der Öffnungszeiten des Friedhofs	mit Behinderten-WC	"Öffentliche Toilette ""Nordfriedhof"""	"Öffentliche Toilette ""Nordfriedhof"""	mit Behinderten-WC		gebührenfrei	Landeshauptstadt München	FALSE	FALSE
1060535	Landeshauptstadt München	Referat für Gesundheit und Umwelt	Westfriedhof	Baldurstr.	28	80637	München	48.1693044	11.5256368	10176174	sfm-gv-west.rgu@muenchen.de	während der Öffnungszeiten des Friedhofs	mit Behinderten-WC	"Öffentliche Toilette ""Westfriedhof"""	"Öffentliche Toilette ""Westfriedhof"""	mit Behinderten-WC		gebührenfrei	Landeshauptstadt München	FALSE	FALSE
1060537	Landeshauptstadt München	Referat für Gesundheit und Umwelt	Waldfriedhof Neuer Teil	Lorettoplatz	3	81377	München	48.1003904	11.4863302	10176178	sfm-gv-wnt.rgu@muenchen.de	während der Öffnungszeiten des Friedhofs	mit Behinderten-WC	"Öffentliche Toilette ""Waldfriedhof Neuer Teil"""	"Öffentliche Toilette ""Waldfriedhof Neuer Teil"""	mit Behinderten-WC		gebührenfrei	Landeshauptstadt München	FALSE	FALSE
1060538	Landeshauptstadt München	Referat für Gesundheit und Umwelt	Friedhof Pasing/Obermenzing	Bergsonstraße	32	81245	München	48.1662985	11.4493563	10176182	sfm-gv-pom.rgu@muenchen.de	während der Öffnungszeiten des Friedhofs	mit Behinderten-WC	"Öffentliche Toilette ""Friedhof Pasing/Obermenzing"""	"Öffentliche Toilette ""Friedhof Pasing/Obermenzing"""	mit Behinderten-WC		gebührenfrei	Landeshauptstadt München	FALSE	FALSE
1060539	Landeshauptstadt München	Referat für Gesundheit und Umwelt	Waldfriedhof Alter Teil	Fuerstenrieder Str.	288	81377	München	48.1091163	11.5001094	10176179	sfm-gv-wat.rgu@muenchen.de	während der Öffnungszeiten des Friedhofs	mit Behinderten-WC	"Öffentliche Toilette ""Waldfriedhof Alter Teil"""	"Öffentliche Toilette ""Waldfriedhof Alter Teil"""	mit Behinderten-WC		gebührenfrei	Landeshauptstadt München	FALSE	FALSE
1060540	Landeshauptstadt München	Referat für Gesundheit und Umwelt	Friedhof am Perlacher Forst	Stadelheimer Straße	24	81549	München	48.0996733	11.5963591	10176176	sfm-gv-perl.rgu@muenchen.de	während der Öffnungszeiten des Friedhofs	mit Behinderten-WC	"Öffentliche Toilette ""Friedhof am Perlacher Forst"""	"Öffentliche Toilette ""Friedhof am Perlacher Forst"""	mit Behinderten-WC		gebührenfrei	Landeshauptstadt München	FALSE	FALSE
1060541	Landeshauptstadt München	Referat für Gesundheit und Umwelt	Krematorium	St.-Martin-Str.	41	81541	München	48.1201859	11.5954773	10176172	krematorium-gv@muenchen.de	während der Öffnungszeiten des Friedhofs		"Öffentliche Toilette ""Städtische Friedhöfe München Krematorium"""	"Öffentliche Toilette ""Städtische Friedhöfe München Krematorium"""			gebührenfrei	Landeshauptstadt München	FALSE	FALSE
1065591	Landeshauptstadt München	MTG	"Öffentliche Toilette ""Aidenbachstraße (im U-Bahnhof)"""					48.0980482	11.5241144	1065592	info@muenchner-toiletten.de	Täglich, 06.00-24.00 Uhr	Barrierefrei zugänglich (Aufzug) - separates Behinderten-WC	"Öffentliche Toilette ""Aidenbachstraße (im U-Bahnhof)"""	"Öffentliche Toilette ""Aidenbachstraße (im U-Bahnhof)"""	mit separatem Behinderten-WC		gebührenfrei	Münchner Toiletten GmbH	FALSE	FALSE
1065593	Landeshauptstadt München	MTG	"Öffentliche Toilette ""Am Harras (im U-Bahnhof)"""					48.1169826	11.5381495	1065594	info@muenchner-toiletten.de	Täglich, 06.00-24.00 Uhr	Barrierefrei zugänglich (Rampe)	"Öffentliche Toilette ""Am Harras (im U-Bahnhof)"""	"Öffentliche Toilette ""Am Harras (im U-Bahnhof)"""			gebührenfrei	Münchner Toiletten GmbH	FALSE	FALSE
1065595	Landeshauptstadt München	MTG	"Öffentliche Toilette ""Am Hart (im U-Bahnhof)"""					48.1954889	11.5715441	1065596	info@muenchner-toiletten.de	Täglich, 06.00-24.00 Uhr	Barrierefrei zugänglich (Aufzug) - separates Behinderten-WC	"Öffentliche Toilette ""Am Hart (im U-Bahnhof)"""	"Öffentliche Toilette ""Am Hart (im U-Bahnhof)"""	mit separatem Behinderten-WC		gebührenfrei	Münchner Toiletten GmbH	FALSE	FALSE
1065599	Landeshauptstadt München	MTG	"Öffentliche Toilette ""Arabellapark (im U-Bahnhof)"""					48.1534624	11.6227647	1065600	info@muenchner-toiletten.de	Täglich, 06.00-24.00 Uhr	separates Behinderten-WC	"Öffentliche Toilette ""Arabellapark (im U-Bahnhof)"""	"Öffentliche Toilette ""Arabellapark (im U-Bahnhof)"""	mit separatem Behinderten-WC		gebührenfrei	Münchner Toiletten GmbH	FALSE	FALSE
1065601	Landeshauptstadt München	MTG	"Öffentliche Toilette ""Belgradstraße 113 (beim U-Bahnhof Scheidplatz)"""					48.1707962	11.5723277	1065602	info@muenchner-toiletten.de	Täglich, 06.00-24.00 Uhr	Barrierefrei zugänglich (Rampe) - separates Behinderten-WC	"Öffentliche Toilette ""Belgradstraße 113 (beim U-Bahnhof Scheidplatz)"""	"Öffentliche Toilette ""Belgradstraße 113 (beim U-Bahnhof Scheidplatz)"""	mit separatem Behinderten-WC		gebührenfrei	Münchner Toiletten GmbH	FALSE	FALSE
1065603	Landeshauptstadt München	MTG	"Öffentliche Toilette ""Böhmerwaldplatz (im U-Bahnhof)"""					48.1428966	11.6150349	1065604	info@muenchner-toiletten.de	Täglich, 06.00-24.00 Uhr	Barrierefrei zugänglich (Aufzug) - separates Behinderten-WC	"Öffentliche Toilette ""Böhmerwaldplatz (im U-Bahnhof)"""	"Öffentliche Toilette ""Böhmerwaldplatz (im U-Bahnhof)"""	mit separatem Behinderten-WC		gebührenfrei	Münchner Toiletten GmbH	FALSE	FALSE
1065605	Landeshauptstadt München	MTG	"Öffentliche Toilette ""Brudermühlstraße (im U-Bahnhof)"""					48.1129414	11.5486742	1065606	info@muenchner-toiletten.de	Täglich, 06.00-24.00 Uhr	Barrierefrei zugänglich (Aufzug) - integriertes Behinderten-WC	"Öffentliche Toilette ""Brudermühlstraße (im U-Bahnhof)"""	"Öffentliche Toilette ""Brudermühlstraße (im U-Bahnhof)"""	mit integriertem Behinderten-WC		gebührenfrei	Münchner Toiletten GmbH	FALSE	FALSE
1065607	Landeshauptstadt München	MTG	"Öffentliche Toilette ""Candidplatz (im U-Bahnhof)"""					48.1126041	11.5710105	1065608	info@muenchner-toiletten.de	Täglich, 06.00-24.00 Uhr	Barrierefrei zugänglich (Rampe) - separates Behinderten-WC	"Öffentliche Toilette ""Candidplatz (im U-Bahnhof)"""	"Öffentliche Toilette ""Candidplatz (im U-Bahnhof)"""	mit separatem Behinderten-WC		gebührenfrei	Münchner Toiletten GmbH	FALSE	FALSE
1065609	Landeshauptstadt München	MTG	"Öffentliche Toilette ""Dülferstraße (im U-Bahnhof)"""					48.2128129	11.5627478	1065610	info@muenchner-toiletten.de	Täglich, 06.00-24.00 Uhr	Barrierefrei zugänglich (Aufzug) - separates Behinderten-WC	"Öffentliche Toilette ""Dülferstraße (im U-Bahnhof)"""	"Öffentliche Toilette ""Dülferstraße (im U-Bahnhof)"""	mit separatem Behinderten-WC		gebührenfrei	Münchner Toiletten GmbH	FALSE	FALSE
1065611	Landeshauptstadt München	MTG	"Öffentliche Toilette ""Elisabethplatz 4c"""	Elisabethplatz	4c			48.1570978	11.5743366	1065612	info@muenchner-toiletten.de	Täglich, 06.00-24.00 Uhr	Barrierefrei zugänglich (Aufzug) - separates Behinderten-WC	"Öffentliche Toilette ""Elisabethplatz 4c"""	"Öffentliche Toilette ""Elisabethplatz 4c"""	mit separatem Behinderten-WC		gebührenfrei	Münchner Toiletten GmbH	FALSE	FALSE
1065613	Landeshauptstadt München	MTG	"Öffentliche Toilette ""Feldmoching (im U-Bahnhof)"""					48.2139000	11.5416664	1065614	info@muenchner-toiletten.de	Täglich, 06.00-24.00 Uhr	Barrierefrei zugänglich (Aufzug) - separates Behinderten-WC	"Öffentliche Toilette ""Feldmoching (im U-Bahnhof)"""	"Öffentliche Toilette ""Feldmoching (im U-Bahnhof)"""	mit separatem Behinderten-WC		gebührenfrei	Münchner Toiletten GmbH	FALSE	FALSE
1065615	Landeshauptstadt München	MTG	"Öffentliche Toilette ""Forstenrieder Allee (im U-Bahnhof)"""					48.0950690	11.4981645	1065616	info@muenchner-toiletten.de	Täglich, 06.00-24.00 Uhr	Barrierefrei zugänglich (Aufzug) - integriertes Behinderten-WC	"Öffentliche Toilette ""Forstenrieder Allee (im U-Bahnhof)"""	"Öffentliche Toilette ""Forstenrieder Allee (im U-Bahnhof)"""	mit integriertem Behinderten-WC		gebührenfrei	Münchner Toiletten GmbH	FALSE	FALSE
1065617	Landeshauptstadt München	MTG	"Öffentliche Toilette ""Frankfurter Ring (im U-Bahnhof)"""					48.1879383	11.5725618	1065618	info@muenchner-toiletten.de	Täglich, 06.00-24.00 Uhr	Barrierefrei zugänglich (Aufzug) - separates Behinderten-WC	"Öffentliche Toilette ""Frankfurter Ring (im U-Bahnhof)"""	"Öffentliche Toilette ""Frankfurter Ring (im U-Bahnhof)"""	mit separatem Behinderten-WC		gebührenfrei	Münchner Toiletten GmbH	FALSE	FALSE
1065619	Landeshauptstadt München	MTG	"Öffentliche Toilette ""Fraunhoferstraße (im U-Bahnhof)"""					48.1289507	11.5749450	1065620	info@muenchner-toiletten.de	Täglich, 06.00-24.00 Uhr	Barrierefrei zugänglich (Aufzug) - integriertes Behinderten-WC	"Öffentliche Toilette ""Fraunhoferstraße (im U-Bahnhof)"""	"Öffentliche Toilette ""Fraunhoferstraße (im U-Bahnhof)"""	mit integriertem Behinderten-WC		gebührenfrei	Münchner Toiletten GmbH	FALSE	FALSE
1065621	Landeshauptstadt München	MTG	"Öffentliche Toilette ""Friedenheimer Straße (im U-Bahnhof)"""					48.1352063	11.5106049	1065622	info@muenchner-toiletten.de	Täglich, 06.00-24.00 Uhr	Barrierefrei zugänglich (Aufzug) - integriertes Behinderten-WC	"Öffentliche Toilette ""Friedenheimer Straße (im U-Bahnhof)"""	"Öffentliche Toilette ""Friedenheimer Straße (im U-Bahnhof)"""	mit integriertem Behinderten-WC		gebührenfrei	Münchner Toiletten GmbH	FALSE	FALSE
1065623	Landeshauptstadt München	MTG	"Öffentliche Toilette ""Fürstenried West (beim U-Bahnhof)"""					48.0886781	11.4806823	1065624	info@muenchner-toiletten.de	Täglich, 06.00-24.00 Uhr	Barrierefrei zugänglich - Behinderten-WC an Oberfläche	"Öffentliche Toilette ""Fürstenried West (beim U-Bahnhof)"""	"Öffentliche Toilette ""Fürstenried West (beim U-Bahnhof)"""	mit Behinderten-WC an der Oberfläche		gebührenfrei	Münchner Toiletten GmbH	FALSE	FALSE
1065625	Landeshauptstadt München	MTG	"Öffentliche Toilette ""Giesing (im U-Bahnhof)"""					48.1108830	11.5949017	1065626	info@muenchner-toiletten.de	Täglich, 06.00-24.00 Uhr	Barrierefrei zugänglich (Aufzug)	"Öffentliche Toilette ""Giesing (im U-Bahnhof)"""	"Öffentliche Toilette ""Giesing (im U-Bahnhof)"""			gebührenfrei	Münchner Toiletten GmbH	FALSE	FALSE
1065627	Landeshauptstadt München	MTG	"Öffentliche Toilette ""Goetheplatz (im U-Bahnhof)"""					48.1294727	11.5583095	1065628	info@muenchner-toiletten.de	Täglich, 06.00-24.00 Uhr	Barrierefrei zugänglich (Aufzug) - separates Behinderten-WC	"Öffentliche Toilette ""Goetheplatz (im U-Bahnhof)"""	"Öffentliche Toilette ""Goetheplatz (im U-Bahnhof)"""	mit separatem Behinderten-WC		gebührenfrei	Münchner Toiletten GmbH	FALSE	FALSE
1065629	Landeshauptstadt München	Baureferat	Gollierplatz	Gollierplatz				48.1365425	11.5346154	1065630				"Öffentliche Toilette ""Gollierplatz"""	"Öffentliche Toilette ""Gollierplatz"""	Münz-WC- mit Behinderten-WC	Münz-WC	gebührenpflichtig	Landeshauptstadt München	FALSE	FALSE
1065631	Landeshauptstadt München	MTG	"Öffentliche Toilette ""Großhadern (im U-Bahnhof)"""					48.1150576	11.4770996	1065632	info@muenchner-toiletten.de	Täglich, 06.00-24.00 Uhr	Barrierefrei zugänglich (Aufzug) - separates Behinderten-WC	"Öffentliche Toilette ""Großhadern (im U-Bahnhof)"""	"Öffentliche Toilette ""Großhadern (im U-Bahnhof)"""	mit separatem Behinderten-WC		gebührenfrei	Münchner Toiletten GmbH	FALSE	FALSE
1065633	Landeshauptstadt München	MTG	"Öffentliche Toilette ""Haderner Stern (im U-Bahnhof)"""					48.1184191	11.4906847	1065634	info@muenchner-toiletten.de	Täglich, 06.00-24.00 Uhr	Barrierefrei zugänglich (Aufzug) - separates Behinderten-WC	"Öffentliche Toilette ""Haderner Stern (im U-Bahnhof)"""	"Öffentliche Toilette ""Haderner Stern (im U-Bahnhof)"""	mit separatem Behinderten-WC		gebührenfrei	Münchner Toiletten GmbH	FALSE	FALSE
1065635	Landeshauptstadt München	MTG	"Öffentliche Toilette ""Harthof (im U-Bahnhof)"""					48.2047978	11.5693678	1065636	info@muenchner-toiletten.de	Täglich, 06.00-24.00 Uhr	Barrierefrei zugänglich (Aufzug) - separates Behinderten-WC	"Öffentliche Toilette ""Harthof (im U-Bahnhof)"""	"Öffentliche Toilette ""Harthof (im U-Bahnhof)"""	mit separatem Behinderten-WC		gebührenfrei	Münchner Toiletten GmbH	FALSE	FALSE
1065637	Landeshauptstadt München	MTG	"Öffentliche Toilette ""Hasenbergl (im U-Bahnhof)"""					48.2134049	11.5553016	1065638	info@muenchner-toiletten.de	Täglich, 06.00-24.00 Uhr	Barrierefrei zugänglich (Aufzug) - separates Behinderten-WC	"Öffentliche Toilette ""Hasenbergl (im U-Bahnhof)"""	"Öffentliche Toilette ""Hasenbergl (im U-Bahnhof)"""	mit separatem Behinderten-WC		gebührenfrei	Münchner Toiletten GmbH	FALSE	FALSE
1065639	Landeshauptstadt München	MTG	"Öffentliche Toilette ""Hauptbahnhof (beim U-Bahnhof - Fernbahn)"""					48.1395313	11.5589048	1065640	info@muenchner-toiletten.de	Täglich, 06.00-24.00 Uhr		"Öffentliche Toilette ""Hauptbahnhof (beim U-Bahnhof - Fernbahn)"""	"Öffentliche Toilette ""Hauptbahnhof (beim U-Bahnhof - Fernbahn)"""			gebührenfrei	Münchner Toiletten GmbH	FALSE	FALSE
 	Landeshauptstadt München	Baureferat	Lerchenauer See	Lasallestraße	103	80995	München	48.1993935	11.5361556	 		Täglich, 06.00-24.00 Uhr		"Öffentliche Toilette ""Lerchenauer See"""	"Öffentliche Toilette ""Lerchenauer See"""			gebührenfrei	Landeshauptstadt München	FALSE	FALSE
1065643	Landeshauptstadt München	Kommunalreferat	"Öffentliche Toilette ""Herkomerplatz 1a"""	Herkomerplatz	1a			48.1511641	11.6078098	1065644	office@flowlife.eu	Mo-Fr 7-24, Sa 9-24, So 9-22 Uhr	mit Behinderten-WC	"Öffentliche Toilette ""Herkomerplatz 1a"""	"Öffentliche Toilette ""Herkomerplatz 1a"" (im Restaurant)"	mit Behinderten-WC		gebührenfrei	Privater Betreiber	FALSE	FALSE
1065645	Landeshauptstadt München	MTG	"Öffentliche Toilette ""Holzapfelkreuth (im U-Bahnhof)"""					48.1162994	11.5015709	1065646	info@muenchner-toiletten.de	Täglich, 06.00-24.00 Uhr	Barrierefrei zugänglich (Aufzug) - integriertes Behinderten-WC	"Öffentliche Toilette ""Holzapfelkreuth (im U-Bahnhof)"""	"Öffentliche Toilette ""Holzapfelkreuth (im U-Bahnhof)"""	mit integriertem Behinderten-WC		gebührenfrei	Münchner Toiletten GmbH	FALSE	FALSE
1065647	Landeshauptstadt München	MTG	"Öffentliche Toilette ""Innsbrucker Ring (im U-Bahnhof)"""					48.1204278	11.6194469	1065648	info@muenchner-toiletten.de	Täglich, 06.00-24.00 Uhr	Barrierefrei zugänglich (Rampe) - integriertes Behinderten-WC	"Öffentliche Toilette ""Innsbrucker Ring (im U-Bahnhof)"""	"Öffentliche Toilette ""Innsbrucker Ring (im U-Bahnhof)"""	mit integriertem Behinderten-WC		gebührenfrei	Münchner Toiletten GmbH	FALSE	FALSE
 	Landeshauptstadt München	Baureferat	Petuelpark (im Cafehaus)	Klopstockstr.	10	80804	München	48.1774701	11.5794514	 		während der Öffnungszeiten des Cafe`s		"Öffentliche Toilette ""Petuelpark"""	"Öffentliche Toilette ""Petuelpark"""	mit Behinderten-WC		gebührenfrei	Privater Betreiber	FALSE	FALSE
1065651	Landeshauptstadt München	MTG	"Öffentliche Toilette ""Josephsplatz (im U-Bahnhof)"""					48.1549107	11.5666532	1065652	info@muenchner-toiletten.de	Täglich, 06.00-24.00 Uhr	Behinderten-WC nicht barrierefrei zugänglich	"Öffentliche Toilette ""Josephsplatz (im U-Bahnhof)"""	"Öffentliche Toilette ""Josephsplatz (im U-Bahnhof)"""	mit Behinderten-WC, nicht barrierefrei zugänglich		gebührenfrei	Münchner Toiletten GmbH	FALSE	FALSE
1065653	Landeshauptstadt München	MTG	"Öffentliche Toilette ""Karl-Preis-Platz (im U-Bahnhof)"""					48.1178085	11.6080499	1065654	info@muenchner-toiletten.de	Täglich, 06.00-24.00 Uhr	Behinderten-WC nicht barrierefrei zugänglich	"Öffentliche Toilette ""Karl-Preis-Platz (im U-Bahnhof)"""	"Öffentliche Toilette ""Karl-Preis-Platz (im U-Bahnhof)"""	mit Behinderten-WC, nicht barrierefrei zugänglich		gebührenfrei	Münchner Toiletten GmbH	FALSE	FALSE
 	Landeshauptstadt München	Baureferat	Fasaneriesee nordwestlich	Feldmochinger Str.	255	80995	München	48.2063437	11.5281174	 		Täglich, 00.00-24.00 Uhr		"Öffentliche Toilette ""Fasaneriesee"""	"Öffentliche Toilette ""Fasaneriesee"""			gebührenfrei	Landeshauptstadt München	FALSE	FALSE
	Landeshauptstadt München	Baureferat	Fasaneriesee Parkplatz südwestlich	Feldmochinger Str.		80995	München	48.2025630	11.5258643			Täglich, 00.00-24.00 Uhr		"Öffentliche Toilette ""Fasaneriesee ""Parkplatz"""	"Öffentliche Toilette ""Fasaneriesee ""Parkplatz"""			gebührenfrei		FALSE	FALSE
1065659	Landeshauptstadt München	MTG	"Öffentliche Toilette ""Kieferngarten (beim U-Bahnhof in P+R-Anlage)"""					48.2020450	11.6121307	1065660	info@muenchner-toiletten.de	Täglich, 06.00-24.00 Uhr	Barrierefrei zugänglich - separates Behinderten-WC	"Öffentliche Toilette ""Kieferngarten (beim U-Bahnhof in P+R-Anlage)"""	"Öffentliche Toilette ""Kieferngarten (beim U-Bahnhof in P+R-Anlage)"""	mit separatem Behinderten-WC		gebührenfrei	Münchner Toiletten GmbH	FALSE	FALSE
1065661	Landeshauptstadt München	MTG	"Öffentliche Toilette ""Klinikum Großhadern (beim U-Bahnhof)"""					48.1084983	11.4724795	1065662	info@muenchner-toiletten.de	Täglich, 06.00-24.00 Uhr	Barrierefrei zugänglich - separates Behinderten-WC	"Öffentliche Toilette ""Klinikum Großhadern (beim U-Bahnhof)"""	"Öffentliche Toilette ""Klinikum Großhadern (beim U-Bahnhof)"""	mit separatem Behinderten-WC		gebührenfrei	Münchner Toiletten GmbH	FALSE	FALSE
1065663	Landeshauptstadt München	MTG	"Öffentliche Toilette ""Kolumbusplatz (im U-Bahnhof)"""					48.1194512	11.5767156	1065664	info@muenchner-toiletten.de	Täglich, 06.00-24.00 Uhr	Behinderten-WC nicht barrierefrei zugänglich	"Öffentliche Toilette ""Kolumbusplatz (im U-Bahnhof)"""	"Öffentliche Toilette ""Kolumbusplatz (im U-Bahnhof)"""	mit Behinderten-WC, nicht barrierefrei zugänglich		gebührenfrei	Münchner Toiletten GmbH	FALSE	FALSE
 	Landeshauptstadt München	Baureferat	Feldmochinger See	Karlsfelder Str.	80	80995	München	48.2168727	11.5147072	 		Täglich, 00.00-24.00 Uhr		"Öffentliche Toilette ""Feldmochinger See"""	"Öffentliche Toilette ""Feldmochinger See"""			gebührenfrei	Landeshauptstadt München	FALSE	FALSE
1065667	Landeshauptstadt München	MTG	"Öffentliche Toilette ""Kurfürstenplatz 6b"""	Kurfürstenplatz	6b			48.1599871	11.5750117	1065668	info@muenchner-toiletten.de	Täglich, 06.00-24.00 Uhr	Barrierefrei zugänglich - separates Behinderten-WC	"Öffentliche Toilette ""Kurfürstenplatz 6b"""	"Öffentliche Toilette ""Kurfürstenplatz 6b"""	mit separatem Behinderten-WC		gebührenfrei	Münchner Toiletten GmbH	FALSE	FALSE
1065669	Landeshauptstadt München	MTG	"Öffentliche Toilette ""Laimer Platz (im U-Bahnhof)"""					48.1354683	11.5024739	1065670	info@muenchner-toiletten.de	Täglich, 06.00-24.00 Uhr	Barrierefrei zugänglich (Aufzug) - separates Behinderten-WC	"Öffentliche Toilette ""Laimer Platz (im U-Bahnhof)"""	"Öffentliche Toilette ""Laimer Platz (im U-Bahnhof)"""	mit separatem Behinderten-WC		gebührenfrei	Münchner Toiletten GmbH	FALSE	FALSE
1065671	Landeshauptstadt München	MTG	"Öffentliche Toilette ""Lehel (im U-Bahnhof)"""					48.1394948	11.5883618	1065672	info@muenchner-toiletten.de	Täglich, 06.00-24.00 Uhr	Barrierefrei zugänglich (Aufzug) - integriertes Behinderten-WC	"Öffentliche Toilette ""Lehel (im U-Bahnhof)"""	"Öffentliche Toilette ""Lehel (im U-Bahnhof)"""	mit integriertem Behinderten-WC		gebührenfrei	Münchner Toiletten GmbH	FALSE	FALSE
1065673	Landeshauptstadt München	MTG	"Öffentliche Toilette ""Mangfallplatz"""					48.0969197	11.5783637	1065674	info@muenchner-toiletten.de	Täglich, 06.00-24.00 Uhr	Barrierefrei zugänglich (Aufzug) - separates Behinderten-WC	"Öffentliche Toilette ""Mangfallplatz"""	"Öffentliche Toilette ""Mangfallplatz"""	mit separatem Behinderten-WC		gebührenfrei	Münchner Toiletten GmbH	FALSE	FALSE
1065675	Landeshauptstadt München	MTG	"Öffentliche Toilette ""Marienplatz (im S- u. U-Bahnhof)"""					48.1368700	11.5763174	1065676	info@muenchner-toiletten.de	Täglich, 06.00-24.00 Uhr	"Barrierefrei zugänglich (Aufzug) - separates Behinderten-WC ""Standard Stiftung Leben pur"""	"Öffentliche Toilette ""Marienplatz (im S- u. U-Bahnhof)"""	"Öffentliche Toilette ""Marienplatz (im S- u. U-Bahnhof)"""	mit separatem Behinderten-WC 	"""Standard Stiftung Leben pur"""	gebührenpflichtig	Münchner Toiletten GmbH	FALSE	TRUE
1065677	Landeshauptstadt München	MTG	"Öffentliche Toilette ""Marienplatz Neues Rathaus (im Prunkhof)"""					48.1378478	11.5756510	1065678	info@muenchner-toiletten.de	Mo-Fr 08:00-21:00, Sa 09:00-20:00, So 10:00-20:00, Feiertags 10:00-20:00	Barrierefrei zugänglich - separates Behinderten-WC	"Öffentliche Toilette ""Marienplatz Neues Rathaus (im Prunkhof)"""	"Öffentliche Toilette ""Marienplatz Neues Rathaus (im Prunkhof)"""	mit separatem Behinderten-WC		gebührenpflichtig	Münchner Toiletten GmbH	FALSE	TRUE
1065679	Landeshauptstadt München	MTG	"Öffentliche Toilette ""Max-Weber-Platz (im U-Bahnhof)"""					48.1355999	11.5983218	1065680	info@muenchner-toiletten.de	Täglich, 06.00-24.00 Uhr	Barrierefrei zugänglich (Aufzug) - integriertes Behinderten-WC	"Öffentliche Toilette ""Max-Weber-Platz (im U-Bahnhof)"""	"Öffentliche Toilette ""Max-Weber-Platz (im U-Bahnhof)"""	mit integriertem Behinderten-WC		gebührenfrei	Münchner Toiletten GmbH	FALSE	FALSE
1065681	Landeshauptstadt München	MTG	"Öffentliche Toilette ""Messestadt Ost (im U-Bahnhof)"""					48.1334122	11.7045287	1065682	info@muenchner-toiletten.de	Täglich, 06.00-24.00 Uhr	Barrierefrei zugänglich (Aufzug) - separates Behinderten-WC	"Öffentliche Toilette ""Messestadt Ost (im U-Bahnhof)"""	"Öffentliche Toilette ""Messestadt Ost (im U-Bahnhof)"""	mit separatem Behinderten-WC		gebührenfrei	Münchner Toiletten GmbH	FALSE	FALSE
1065683	Landeshauptstadt München	MTG	"Öffentliche Toilette ""Messestadt West (im U-Bahnhof)"""					48.1333787	11.6917254	1065684	info@muenchner-toiletten.de	Täglich, 06.00-24.00 Uhr	Barrierefrei zugänglich - separates Behinderten-WC	"Öffentliche Toilette ""Messestadt West (im U-Bahnhof)"""	"Öffentliche Toilette ""Messestadt West (im U-Bahnhof)"""	mit separatem Behinderten-WC		gebührenfrei	Münchner Toiletten GmbH	FALSE	FALSE
1065685	Landeshauptstadt München	MTG	"Öffentliche Toilette ""Milbertshofen (im U-Bahnhof)"""					48.1800712	11.5730978	1065686	info@muenchner-toiletten.de	Täglich, 06.00-24.00 Uhr	Barrierefrei zugänglich (Aufzug) - separates Behinderten-WC	"Öffentliche Toilette ""Milbertshofen (im U-Bahnhof)"""	"Öffentliche Toilette ""Milbertshofen (im U-Bahnhof)"""	mit separatem Behinderten-WC		gebührenfrei	Münchner Toiletten GmbH	FALSE	FALSE
1065687	Landeshauptstadt München	MTG	"Öffentliche Toilette ""Münchner Freiheit (im U-Bahnhof)"""					48.1623753	11.5862434	1065688	info@muenchner-toiletten.de	Täglich, 06.00-24.00 Uhr	Barrierefrei zugänglich (Rampe und Aufzug) - separates Behinderten-WC	"Öffentliche Toilette ""Münchner Freiheit (im U-Bahnhof)"""	"Öffentliche Toilette ""Münchner Freiheit (im U-Bahnhof)"""	mit separatem Behinderten-WC		gebührenpflichtig	Münchner Toiletten GmbH	FALSE	TRUE
1065689	Landeshauptstadt München	MTG	"Öffentliche Toilette ""Neuperlach Süd (im S- u. U-Bahnhof)"""					48.0895610	11.6443333	1065690	info@muenchner-toiletten.de	Täglich, 06.00-24.00 Uhr		"Öffentliche Toilette ""Neuperlach Süd (im S- u. U-Bahnhof)"""	"Öffentliche Toilette ""Neuperlach Süd (im S- u. U-Bahnhof)"""			gebührenfrei	Münchner Toiletten GmbH	FALSE	FALSE
1065691	Landeshauptstadt München	MTG	"Öffentliche Toilette ""Obersendling (im U-Bahnhof)"""					48.0982318	11.5360483	1065692	info@muenchner-toiletten.de	Täglich, 06.00-24.00 Uhr	Barrierefrei zugänglich (Rampe) - separates Behinderten-WC	"Öffentliche Toilette ""Obersendling (im U-Bahnhof)"""	"Öffentliche Toilette ""Obersendling (im U-Bahnhof)"""	mit separatem Behinderten-WC		gebührenfrei	Münchner Toiletten GmbH	FALSE	FALSE
1065693	Landeshauptstadt München	MTG	"Öffentliche Toilette ""Odeonsplatz 19"""	Odeonsplatz	19			48.1426152	11.5783530	1065694	info@muenchner-toiletten.de	Täglich, 06.00-24.00 Uhr		"Öffentliche Toilette ""Odeonsplatz 19"""	"Öffentliche Toilette ""Odeonsplatz 19"""			gebührenfrei	Münchner Toiletten GmbH	FALSE	FALSE
1065695	Landeshauptstadt München	Baureferat	Olympiaberg	Martin-Luther-King-Weg				48.1709540	11.5546599	1065696		während der Öffnungszeiten des Kiosk		"Öffentliche Toilette ""Olympiaberg"""	"Öffentliche Toilette ""Olympiaberg"""			gebührenfrei	Privater Betreiber	FALSE	FALSE
1065697	Landeshauptstadt München	MTG	"Öffentliche Toilette ""Olympia-Einkaufszentrum (im U-Bahnhof)"""					48.1821243	11.5299137	1065698	info@muenchner-toiletten.de	Täglich, 06.00-24.00 Uhr	Barrierefrei zugänglich (Aufzug) - separates Behinderten-WC	"Öffentliche Toilette ""Olympia-Einkaufszentrum (im U-Bahnhof)"""	"Öffentliche Toilette ""Olympia-Einkaufszentrum (im U-Bahnhof)"""	mit separatem Behinderten-WC		gebührenfrei	Münchner Toiletten GmbH	FALSE	FALSE
1065705	Landeshauptstadt München	MTG	"Öffentliche Toilette ""Olympiazentrum (im U-Bahnhof)"""					48.1787030	11.5561393	1065706	info@muenchner-toiletten.de	Täglich, 06.00-24.00 Uhr		"Öffentliche Toilette ""Olympiazentrum (im U-Bahnhof)"""	"Öffentliche Toilette ""Olympiazentrum (im U-Bahnhof)"""			gebührenfrei	Münchner Toiletten GmbH	FALSE	FALSE
1065713	Landeshauptstadt München	MTG	"Öffentliche Toilette ""Prinzregentenplatz (im U-Bahnhof)"""					48.1389294	11.6067205	1065714	info@muenchner-toiletten.de	Täglich, 06.00-24.00 Uhr	Barrierefrei zugänglich (Aufzug) - separates Behinderten-WC am Bahnsteig	"Öffentliche Toilette ""Prinzregentenplatz (im U-Bahnhof)"""	"Öffentliche Toilette ""Prinzregentenplatz (im U-Bahnhof)"""	mit separatem Behinderten-WC am Bahnsteig		gebührenfrei	Münchner Toiletten GmbH	FALSE	FALSE
1065715	Landeshauptstadt München	MTG	"Öffentliche Toilette ""Richard-Strauss-Straße (im U-Bahnhof)"""					48.1488663	11.6171540	1065716	info@muenchner-toiletten.de	Täglich, 06.00-24.00 Uhr	Barrierefrei zugänglich (Aufzug) - separates Behinderten-WC	"Öffentliche Toilette ""Richard-Strauss-Straße (im U-Bahnhof)"""	"Öffentliche Toilette ""Richard-Strauss-Straße (im U-Bahnhof)"""	mit separatem Behinderten-WC		gebührenfrei	Münchner Toiletten GmbH	FALSE	FALSE
1065719	Landeshauptstadt München	MTG	"Öffentliche Toilette ""Rotkreuzplatz (im U-Bahnhof)"""					48.1544028	11.5333654	1065720	info@muenchner-toiletten.de	Täglich, 06.00-24.00 Uhr	separates Behinderten-WC andere Bahnsteigseite (Aufzug)	"Öffentliche Toilette ""Rotkreuzplatz (im U-Bahnhof)"""	"Öffentliche Toilette ""Rotkreuzplatz (im U-Bahnhof)"""	mit separatem Behinderten-WC an der andern Bahnsteigseite (Aufzug)		gebührenfrei	Münchner Toiletten GmbH	FALSE	FALSE
1065721	Landeshauptstadt München	MTG	"Öffentliche Toilette ""Schleißheimer Straße 276a (beim U-Bahnhof Petuelring)"""	Schleißheimer Straße	276a			48.1756435	11.5675006	1065722	info@muenchner-toiletten.de	Täglich, 06.00-24.00 Uhr		"Öffentliche Toilette ""Schleißheimer Straße 276a (beim U-Bahnhof Petuelring)"""	"Öffentliche Toilette ""Schleißheimer Straße 276a (beim U-Bahnhof Petuelring)"""	mit Behinderten-WC		gebührenfrei	Münchner Toiletten GmbH	FALSE	FALSE
1065723	Landeshauptstadt München	MTG	"Öffentliche Toilette ""Sendlinger-Tor-Platz (beim U-Bahnhof)"""					48.1341125	11.5675803	1065724	info@muenchner-toiletten.de	Täglich, 06.00-24.00 Uhr	Barrierefrei zugänglich - integriertes Behinderten-WC im Damen-WC	"Öffentliche Toilette ""Sendlinger-Tor-Platz (beim U-Bahnhof)"""	"Öffentliche Toilette ""Sendlinger-Tor-Platz (beim U-Bahnhof)"""	mit integriertem Behinderten-WC im Damen-WC		gebührenfrei	Münchner Toiletten GmbH	FALSE	FALSE
1065725	Landeshauptstadt München	MTG	"Öffentliche Toilette ""Silberhornstraße (im U-Bahnhof)"""					48.1149498	11.5803384	1065726	info@muenchner-toiletten.de	Täglich, 06.00-24.00 Uhr	Barrierefrei zugänglich (Aufzug) - integriertes Behinderten-WC	"Öffentliche Toilette ""Silberhornstraße (im U-Bahnhof)"""	"Öffentliche Toilette ""Silberhornstraße (im U-Bahnhof)"""	mit integriertem Behinderten-WC		gebührenfrei	Münchner Toiletten GmbH	FALSE	FALSE
1065729	Landeshauptstadt München	MTG	"Öffentliche Toilette ""Studentenstadt (beim U-Bahnhof - Parkplatz)"""					48.1843139	11.6079205	1065730	info@muenchner-toiletten.de	Täglich, 06.00-24.00 Uhr	Barrierefrei zugänglich - separates Behinderten-WC	"Öffentliche Toilette ""Studentenstadt (beim U-Bahnhof - Parkplatz)"""	"Öffentliche Toilette ""Studentenstadt (beim U-Bahnhof - Parkplatz)"""	mit separatem Behinderten-WC		gebührenfrei	Münchner Toiletten GmbH	FALSE	FALSE
1065731	Landeshauptstadt München	MTG	"Öffentliche Toilette ""Thalkirchen (im U-Bahnhof)"""					48.1022827	11.5460283	1065732	info@muenchner-toiletten.de	Täglich, 06.00-24.00 Uhr	Barrierefrei zugänglich (Aufzug) - separates Behinderten-WC	"Öffentliche Toilette ""Thalkirchen (im U-Bahnhof)"""	"Öffentliche Toilette ""Thalkirchen (im U-Bahnhof)"""	mit separatem Behinderten-WC		gebührenfrei	Münchner Toiletten GmbH	FALSE	FALSE
1065733	Landeshauptstadt München	MTG	"Öffentliche Toilette ""Theresienwiese (beim U-Bahnhof)"""					48.1350311	11.5514770	1065734	info@muenchner-toiletten.de	Täglich, 06.00-24.00 Uhr	Barrierefrei zugänglich - separates Behinderten-WC	"Öffentliche Toilette ""Theresienwiese (beim U-Bahnhof)"""	"Öffentliche Toilette ""Theresienwiese (beim U-Bahnhof)"""	mit separatem Behinderten-WC		gebührenfrei	Münchner Toiletten GmbH	FALSE	FALSE
1065735	Landeshauptstadt München	MTG	"Öffentliche Toilette ""Trudering (im S- u. U-Bahnhof)"""					48.1255451	11.6627303	1065736	info@muenchner-toiletten.de	Täglich, 06.00-24.00 Uhr	Barrierefrei zugänglich (Aufzug) - separates Behinderten-WC	"Öffentliche Toilette ""Trudering (im S- u. U-Bahnhof)"""	"Öffentliche Toilette ""Trudering (im S- u. U-Bahnhof)"""	mit separatem Behinderten-WC		gebührenfrei	Münchner Toiletten GmbH	FALSE	FALSE
1065737	Landeshauptstadt München	MTG	"Öffentliche Toilette ""Universität (im U-Bahnhof)"""					48.1509004	11.5814435	1065738	info@muenchner-toiletten.de	Täglich, 06.00-24.00 Uhr		"Öffentliche Toilette ""Universität (im U-Bahnhof)"""	"Öffentliche Toilette ""Universität (im U-Bahnhof)"""			gebührenfrei	Münchner Toiletten GmbH	FALSE	FALSE
1065739	Landeshauptstadt München	MTG	"Öffentliche Toilette ""Waldfriedhofstraße 200"""	Waldfriedhofstraße	200			48.1124111	11.5029245	1065740	info@muenchner-toiletten.de	Täglich, 06.00-24.00 Uhr	Barrierefrei zugänglich - Behinderten-WC	"Öffentliche Toilette ""Waldfriedhofstraße 200"""	"Öffentliche Toilette ""Waldfriedhofstraße 200"""	mit Behinderten-WC		gebührenfrei	Münchner Toiletten GmbH	FALSE	FALSE
 	Landeshauptstadt München	Baureferat	Flaucher (Gastronomie)	Isarauen	8	81379	München	48.1087763	11.5576815	 		ganzjährig		"Öffentliche Toilette ""Flaucher (Gastronomie)“"	"Öffentliche Toilette ""Flaucher (Gastronomie)“"	 		unbekannt	Privater Betreiber	FALSE	FALSE
 	Landeshauptstadt München	Baureferat	Riemer Park	Astrid-Lindgren-Str. 	63	81829	München	48.1288273	11.7096488	 		April bis November		"Öffentliche Toilette ""Riemer Park“   "	"Öffentliche Toilette ""Riemer Park“   "	mit Behinderten-WC		gebührenfrei	Privater Betreiber	FALSE	FALSE
 	Landeshauptstadt München	Baureferat	Ostpark	Feichtstraße 	10	81735	München	48.1155044	11.6384348	 		während der Öffnungszeiten der Gastronomie		"Öffentliche Toilette ""Ostpark“"	"Öffentliche Toilette ""Ostpark“"	mit Behinderten-WC		gebührenfrei	Privater Betreiber	FALSE	FALSE
1065757	Landeshauptstadt München	Baureferat	Westpark am Jackl	Gilmstraße			München	48.1220462	11.5078418	1065758		2. Mai bis Oktober		"Öffentliche Toilette ""WC am Jackl (Westpark Westteil)"""	"Öffentliche Toilette ""WC am Jackl (Westpark Westteil)"""	mit Behinderten-WC		gebührenpflichtig	Landeshauptstadt München	FALSE	FALSE
1065775	Landeshauptstadt München	Baureferat	Westpark/Seebühne/Westteil/Publikum	Sendling Westpark		81373	München	48.1229575	11.5278741	1065776		nur bei Veranstaltungen		"Öffentliche Toilette ""Westpark Seebühne"""	"Öffentliche Toilette ""Westpark Seebühne"""	mit Behinderten-WC		gebührenfrei	Landeshauptstadt München	FALSE	FALSE
1065763	Landeshauptstadt München	MTG	"Öffentliche Toilette ""Westendstraße (im U-Bahnhof)"""					48.1348399	11.5218403	1065764	info@muenchner-toiletten.de	Täglich, 06.00-24.00 Uhr	Barrierefrei zugänglich (Aufzug) - integriertes Behinderten-WC	"Öffentliche Toilette ""Westendstraße (im U-Bahnhof)"""	"Öffentliche Toilette ""Westendstraße (im U-Bahnhof)"""	mit integriertem Behinderten-WC		gebührenfrei	Münchner Toiletten GmbH	FALSE	FALSE
1065765	Landeshauptstadt München	MTG	"Öffentliche Toilette ""Westfriedhof (im U-Bahnhof)"""					48.1695923	11.5288718	1065766	info@muenchner-toiletten.de	Täglich, 06.00-24.00 Uhr	Barrierefrei zugänglich (Aufzug) - separates Behinderten-WC	"Öffentliche Toilette ""Westfriedhof (im U-Bahnhof)"""	"Öffentliche Toilette ""Westfriedhof (im U-Bahnhof)"""	mit separatem Behinderten-WC		gebührenfrei	Münchner Toiletten GmbH	FALSE	FALSE
1065767	Landeshauptstadt München	MTG	"Öffentliche Toilette ""Wettersteinplatz (im U-Bahnhof)"""					48.1084634	11.5748586	1065768	info@muenchner-toiletten.de	Täglich, 06.00-24.00 Uhr	Barrierefrei zugänglich (Aufzug) - separates Behinderten-WC	"Öffentliche Toilette ""Wettersteinplatz (im U-Bahnhof)"""	"Öffentliche Toilette ""Wettersteinplatz (im U-Bahnhof)"""	mit separatem Behinderten-WC		gebührenfrei	Münchner Toiletten GmbH	FALSE	FALSE
1065771	Landeshauptstadt München	MTG	"Öffentliche Toilette ""U-Bahnhof Moosach"""					48.1806274	11.5074703	1065772	info@muenchner-toiletten.de	Täglich, 06.00-24.00 Uhr	Barrierefrei zugänglich (Aufzug) - separates Behinderten-WC	"Öffentliche Toilette ""U-Bahnhof Moosach"""	"Öffentliche Toilette ""U-Bahnhof Moosach"""	mit separatem Behinderten-WC		gebührenfrei	Münchner Toiletten GmbH	FALSE	FALSE
	Landeshauptstadt München	Baureferat	Westpark/Wasserspielplatz	Heiterwanger Str.	34	81373	München	48.1232270	11.5277127			Mai bis Oktober		"Öffentliche Toilette ""Westpark Wasserspielplatz"""	"Öffentliche Toilette ""Westpark Wasserspielplatz"""	 		gebührenfrei	Landeshauptstadt München	FALSE	FALSE
1076785	Landeshauptstadt München	Referat für Gesundheit und Umwelt	Ostfriedhof	St.-Martins-Platz	1	81541	München	48.1181528	11.5880331	10176188	ostfriedhof@muenchen.de	während der Öffnungszeiten des Friedhofs		"Öffentliche Toilette ""Ostfriedhof"""	"Öffentliche Toilette ""Ostfriedhof"""			gebührenfrei	Landeshauptstadt München	FALSE	FALSE
	Landeshauptstadt München	Baureferat	Langwieder See südwestlich			81249	Langwied	48.1931025	11.4165712			Mai bis Oktober		"Öffentliche Toilette ""Langwieder See südwestlich"""	"Öffentliche Toilette ""Langwieder See südwestlich"""			gebührenfrei	Konzessionsnehmer	FALSE	FALSE
	Landeshauptstadt München	Baureferat	Lusssee Imbiss am Parkplatz	Kreuzkapellenstraße	89	81249	Langwied	48.2002013	11.4145106			Mai bis Oktober		"Öffentliche Toilette ""Lusssee Imbiss am Parkplatz"""	"Öffentliche Toilette ""Lusssee Imbiss am Parkplatz"""			gebührenfrei	Konzessionsnehmer	FALSE	FALSE
	Landeshauptstadt München	Baureferat	Lusssee nordöstlich			81249	Langwied	48.2006134	11.4208298			Mai bis Oktober		"Öffentliche Toilette ""Lusssee nordöstlich"""	"Öffentliche Toilette ""Lusssee nordöstlich"""			gebührenfrei	Konzessionsnehmer	FALSE	FALSE
	Landeshauptstadt München	Baureferat	Birkensee südl. Moospfarrerweg	Moospfarrerweg	10	85232	Bergkirchen	48.2022820	11.4151999			Mai bis Oktober		"Öffentliche Toilette ""Birkensee südl. Moospfarrerweg"""	"Öffentliche Toilette ""Birkensee südl. Moospfarrerweg"""			gebührenfrei	Konzessionsnehmer	FALSE	FALSE
	Landeshauptstadt München	Baureferat	Birkensee südöstlich	Moospfarrerweg		85232	Bergkirchen	48.2027093	11.4192232			Mai bis Oktober		"Öffentliche Toilette ""Birkensee südöstlich"""	"Öffentliche Toilette ""Birkensee südöstlich"""			gebührenfrei	Konzessionsnehmer	FALSE	FALSE
	Landeshauptstadt München	Baureferat	Orleansplatz	Orleansplatz		81667	München	48.1279933	11.6029121			Täglich, 00.00-24.00 Uhr		"Öffentliche Toilette ""Orleansplatz"""	"Öffentliche Toilette ""Orleansplatz"""			gebührenpflichtig	Privater Betreiber	FALSE	FALSE
	Landeshauptstadt München	Baureferat	Luitpoldpark westl. (Höhe Brunner Str)			80804	München	48.1709652	11.5676788			Täglich, 00.00-24.00 Uhr		"Öffentliche Toilette ""Luitpoldpark west"""	"Öffentliche Toilette ""Luitpoldpark west"""			gebührenpflichtig	Privater Betreiber	FALSE	FALSE
	Landeshauptstadt München	Baureferat	Luitpoldpark östl. (Höhe Scheidplatz)			80804	München	48.1707104	11.5726107			Mai – Oktober	 	"Öffentliche Toilette ""Luitpoldpark ost"""	"Öffentliche Toilette ""Luitpoldpark ost"""			gebührenfrei	Landeshauptstadt München	FALSE	FALSE
	Landeshauptstadt München	Baureferat	Hirschgarten südwestlich	De la Paz Str.		80639	München	48.1479212	11.5082404			April – November		"Öffentliche Toilette ""Hirschgarten"""	"Öffentliche Toilette ""Hirschgarten"""			gebührenfrei	Landeshauptstadt München	FALSE	FALSE
	Landeshauptstadt München	Baureferat	Possenhofen Steg 1	Ferdinand-von-Miller-Straße	45	82343	Pöcking	47.9660700	11.3222748			Mai-Oktober		"Öffentliche Toilette ""Possenhofen Steg 1"""	"Öffentliche Toilette ""Possenhofen Steg 1"""			gebührenfrei	Konzessionsnehmer	FALSE	FALSE
	Landeshauptstadt München	Baureferat	Possenhofen Kiosk Schloßpark			82343	Pöcking	47.9626738	11.3154432			Mai-Oktober		"Öffentliche Toilette ""Possenhofen Kiosk Schloßpark"""	"Öffentliche Toilette ""Possenhofen Kiosk Schloßpark"""			gebührenfrei	Konzessionsnehmer	FALSE	FALSE
	Landeshauptstadt München	Baureferat	Possenhofen Paradiesparkplatz			82343	Pöcking	47.9675193	11.3200351			Mai-Oktober		"Öffentliche Toilette ""Possenhofen Paradiesparkplatz"""	"Öffentliche Toilette ""Possenhofen Paradiesparkplatz"""			gebührenfrei	Konzessionsnehmer	FALSE	FALSE
	Landeshauptstadt München	Baureferat	Possenhofen Karl Theodor Str. nördlich	Karl-Theodor-Str.		82343	Pöcking	47.9608849	11.3143864			Mai-Oktober		"Öffentliche Toilette ""Possenhofen Karl Theodor Str. nördlich"""	"Öffentliche Toilette ""Possenhofen Karl Theodor Str. nördlich"""			gebührenfrei	Konzessionsnehmer	FALSE	FALSE
	Landeshauptstadt München	Baureferat	Possenhofen Karl Theodor Str. südlich	Karl-Theodor-Str.	14c	82343	Pöcking	47.9600874	11.3140296			Mai-Oktober		"Öffentliche Toilette ""Possenhofen Karl Theodor Str. südlich"""	"Öffentliche Toilette ""Possenhofen Karl Theodor Str. südlich"""			gebührenfrei	Konzessionsnehmer	FALSE	FALSE
	Landeshauptstadt München	Baureferat	Possenhofen nähe Steg DLRG			82343	Pöcking	47.9642947	11.3196770			Mai-Oktober		"Öffentliche Toilette ""Possenhofen nähe Steg DLRG"""	"Öffentliche Toilette ""Possenhofen nähe Steg DLRG"""			gebührenfrei	Konzessionsnehmer	FALSE	FALSE
	Landeshauptstadt München	Baureferat	Possenhofen Kaiserin Elisabeth Museum	Schloßberg 	4c	82343	Pöcking	47.9621467	11.3070143			Mai-Oktober		"Öffentliche Toilette ""Possenhofen Kaiserin Elisabeth Museum"""	"Öffentliche Toilette ""Possenhofen Kaiserin Elisabeth Museum"""			gebührenfrei	Konzessionsnehmer	FALSE	FALSE
